P/2021 P3 (PANSTARRS),e,27.1610,358.2471,333.9918,4.412076,0.1063505,0.33836812,166.0061,09/05.0/2025,2000,g 14.0,4.0
# From MPEC 2023-A50
C/2021 P4 (ATLAS),e,56.3856,347.9964,175.8118,296.5972,0.0001930,0.99636391,0.0000,07/30.4554/2022,2000,g  9.5,4.0
# From MPEC 2023-E68
P/2021 PE20 (ATLAS),e,19.9997,99.6240,210.4269,3.745791,0.1359530,0.67005417,211.0989,09/05.0/2025,2000,g 17.0,4.0
# From MPEC 2023-FK0
C/2021 Q3 (ATLAS),e,77.7126,307.9075,114.1505,74.95890,0.0015187,0.93050170,2.0017,09/05.0/2025,2000,g  8.0,4.0
# From MPC186629
C/2021 Q4 (Fuls),h,06/10.8130/2023,71.5405,183.3315,147.0417,1.001247,7.564657,2000,6.0,4.0
# From MPEC 2022-C56
P/2021 Q5 (ATLAS),e,10.7377,239.7545,180.9616,3.286860,0.1653988,0.62454292,242.3936,09/05.0/2025,2000,g 15.0,4.0
# From MPC186629
C/2021 Q6 (PANSTARRS),h,03/25.2856/2024,161.8264,133.5739,141.0659,1.003020,8.707738,2000,6.0,4.0
# From MPEC 2023-FK0
C/2021 QM45 (PANSTARRS),e,22.7951,354.5949,72.9346,411.6111,0.0001180,0.99324871,0.0000,08/13.6669/2022,2000,g 11.0,4.0
# From MPEC 2022-X67
P/2021 R1 (PANSTARRS),e,5.5356,143.0856,220.0133,8.246756,0.0416178,0.40761958,56.9069,09/05.0/2025,2000,g 11.0,4.0
# From MPEC 2022-X67
C/2021 R2 (PANSTARRS),e,134.4812,16.3440,32.5586,13878,0.0000006,0.99947280,0.0000,12/28.5606/2021,2000,g  7.5,4.0
# From MPEC 2021-W31
P/2021 R3 (PANSTARRS),e,19.9431,304.1955,2.5784,3.768812,0.1347092,0.33174187,210.7045,09/05.0/2025,2000,g 16.0,4.0
# From MPEC 2021-W31
P/2021 R4 (Wierzchos),e,21.0095,321.2782,56.7854,5.627991,0.0738200,0.58516303,105.0272,09/05.0/2025,2000,g 16.0,4.0
# From MPEC 2024-JU4
P/2021 R5 (Rankin),e,7.8536,219.9635,167.6125,4.798379,0.0937696,0.30583468,124.8771,09/05.0/2025,2000,g 12.0,4.0
# From MPEC 2021-W31
P/2021 R6 (Groeller),e,34.8867,176.1607,220.8904,6.289574,0.0624845,0.59294780,87.7388,09/05.0/2025,2000,g 14.5,4.0
# From MPEC 2022-X67
C/2021 R7 (PANSTARRS),e,158.8771,170.2088,140.4137,1030,0.0000298,0.99451030,0.0000,04/17.4833/2021,2000,g 10.5,4.0
# From MPEC 2021-Y10
P/2021 R8 (Sheppard),e,2.2026,167.0633,190.8156,3.020361,0.1877655,0.29249495,268.4067,09/05.0/2025,2000,g 18.5,4.0
# From MPEC 2023-J29
C/2021 S1 (ATLAS),h,03/02.0742/2022,52.0359,299.8531,148.3228,1.002938,6.126102,2000,7.0,4.0
# From MPC186629
C/2021 S3 (PANSTARRS),e,58.5433,215.6026,6.8326,37150,0.0000001,0.99996448,0.0000,02/14.6628/2024,2000,g  5.5,4.0
# From MPC184409
C/2021 S4 (Tsuchinshan),e,17.4804,5.4464,73.0611,155.1556,0.0005100,0.95686586,0.3111,09/05.0/2025,2000,g  6.5,4.0
# From MPEC 2022-OB6
C/2021 T1 (Lemmon),e,140.3491,56.8489,51.5826,3043,0.0000059,0.99899432,0.0000,10/14.9691/2021,2000,g 12.5,4.0
# From MPEC 2023-A50
C/2021 T2 (Fuls),h,06/08.3844/2022,117.5053,223.2002,263.5154,1.000533,1.243608,2000,12.0,4.0
# From MPC184409
C/2021 T4 (Lemmon),e,160.7784,257.8895,329.7608,4100,0.0000038,0.99963874,0.0000,07/31.4983/2023,2000,g  7.5,4.0
# From MPC184409
P/2021 TR81 (Lemmon),e,36.8115,220.1675,272.0137,8.774136,0.0379226,0.83308509,47.4141,09/05.0/2025,2000,g 15.6,4.0
# From MPEC 2022-ED3
P/2021 U1 (Wierzchos),e,30.5510,246.7968,145.2466,8.540752,0.0394875,0.71256734,56.6788,09/05.0/2025,2000,g 14.5,4.0
# From MPEC 2022-L66
P/2021 U3 (Attard-Maury),e,69.9606,75.0948,335.3314,4.197270,0.1146182,0.54933548,161.7420,09/05.0/2025,2000,g 15.5,4.0
# From MPEC 2021-W31
C/2021 U4 (Leonard),e,152.8800,241.8043,237.3173,45.52555,0.0032086,0.96075242,4.3391,09/05.0/2025,2000,g 17.0,4.0
# From MPEC 2022-WQ9
C/2021 U5 (Catalina),e,39.0396,182.6647,321.4711,223.4048,0.0002952,0.98944095,0.0000,01/27.0610/2022,2000,g 13.0,4.0
# From MPEC 2022-CN4
C/2021 V1 (Rankin),e,71.4308,207.7045,195.2230,723.4054,0.0000507,0.99582559,0.0000,04/30.6047/2022,2000,g 13.0,4.0
# From MPEC 2024-JU4
P/2021 V2 (Fuls),e,12.6921,232.2760,259.9155,9.092651,0.0359475,0.61534218,34.3991,09/05.0/2025,2000,g 10.0,4.0
# From MPEC 2024-TD8
C/2021 X1 (Maury-Attard),h,05/27.3235/2023,140.1085,10.6221,334.6274,1.000687,3.234810,2000,7.0,4.0
# From MPEC 2024-E08
C/2021 X2 (Bok),h,07/08.4388/2022,137.1515,228.8468,193.3968,1.001615,2.998289,2000,13.0,4.0
# From MPEC 2024-GJ3
C/2021 Y1 (ATLAS),h,04/30.9769/2023,77.1843,244.7664,245.8511,1.001646,2.032415,2000,7.0,4.0
# From MPEC 2022-YN2
C/2022 A1 (Sarneczky),e,116.5779,285.4912,201.2902,375.7249,0.0001353,0.99665595,0.0000,01/31.1751/2022,2000,g 18.0,4.0
# From MPEC 2024-P23
C/2022 A2 (PANSTARRS),h,02/18.1836/2023,108.1774,171.6107,88.3683,1.000063,1.735342,2000,9.5,4.0
# From MPEC 2024-UQ8
C/2022 A3 (Lemmon-ATLAS),e,88.3532,325.4547,234.8761,910.0370,0.0000359,0.99592920,0.0000,09/28.9876/2023,2000,g  8.0,4.0
# From MPEC 2022-K19
P/2022 B1 (Wierzchos),e,10.9955,325.3742,148.9493,5.469571,0.0770503,0.65366268,99.1543,09/05.0/2025,2000,g 16.5,4.0
# From MPEC 2022-YB4
A/2022 B3,e,132.0503,286.1734,150.7280,632.4592,0.0000620,0.99414143,0.0000,01/16.6461/2022,2000,g 16.5,2.0
# From MPEC 2022-GA9
C/2022 B4 (Bok),e,20.0597,340.4998,153.0390,410.5484,0.0001185,0.99664889,0.0000,01/30.5286/2022,2000,g 21.0,4.0
# From MPEC 2023-J29
P/2022 BV9 (Lemmon),e,11.9230,337.3068,16.3018,4.366110,0.1080344,0.23344275,192.2082,09/05.0/2025,2000,g  9.5,4.0
# From MPEC 2023-J29
P/2022 C1 (PANSTARRS),e,4.7632,113.0973,9.4758,7.235329,0.0506427,0.44918066,70.8663,09/05.0/2025,2000,g 12.0,4.0
# From MPEC 2023-VM5
P/2022 C2 (PANSTARRS),e,9.9845,135.2620,89.1273,6.032744,0.0665169,0.44206285,74.9012,09/05.0/2025,2000,g 12.5,4.0
# From MPEC 2023-UR6
P/2022 C3 (PANSTARRS),e,12.8252,139.0412,93.7951,9.615256,0.0330570,0.54551881,38.4390,09/05.0/2025,2000,g 11.5,4.0
# From MPEC 2022-K19
P/2022 D1 (PANSTARRS),e,44.0637,47.9444,88.6667,7.406146,0.0489008,0.54806229,71.7898,09/05.0/2025,2000,g 12.5,4.0
# From MPEC 2022-K19
C/2022 D2 (Kowalski),e,22.6839,312.3517,177.8651,402.9035,0.0001219,0.99614641,0.0000,03/28.1230/2022,2000,g 17.0,4.0
# From MPEC 2022-L66
P/2022 E1 (Christensen),e,19.0070,113.3414,114.8759,3.777807,0.1342284,0.22056670,158.9119,09/05.0/2025,2000,g 13.5,4.0
# From MPC186629
C/2022 E2 (ATLAS),h,09/14.1590/2024,137.1410,125.3967,41.7539,1.000343,3.666699,2000,5.0,4.0
# From MPC186629
C/2022 E3 (ZTF),e,109.1775,302.5001,145.8342,244176,0.0000000,0.99999543,0.0000,01/12.4688/2023,2000,g  7.5,4.0
# From MPEC 2024-PC5
C/2022 F1 (ATLAS),e,57.9972,350.6356,278.3767,35490,0.0000001,0.99983152,0.0000,08/06.1800/2022,2000,g  7.0,4.0
# From MPEC 2022-QD9
C/2022 F2 (NEOWISE),e,97.3209,58.7806,200.5844,23.74301,0.0085192,0.93306045,10.7578,09/05.0/2025,2000,g 14.5,4.0
# From MPC185656
C/2022 H1 (PANSTARRS),e,49.8608,6.3215,246.2905,848.1894,0.0000399,0.99093485,0.0000,01/18.5766/2024,2000,g  6.0,4.0
# From MPEC 2022-VC5
C/2022 J1 (Maury-Attard),e,105.9600,280.8074,305.5991,47.46866,0.0030137,0.96630862,3.8985,09/05.0/2025,2000,g 14.9,4.0
# From MPEC 2023-M14
C/2022 J2 (Bok),e,149.1424,252.6950,133.1689,90.05301,0.0011533,0.97969011,0.0000,10/26.6536/2022,2000,g 15.5,4.0
# From MPEC 2024-YC7
C/2022 JK5 (PANSTARRS),e,16.8242,59.6521,247.3840,43.77515,0.0034030,0.93841256,2.9271,09/05.0/2025,2000,g 11.0,4.0
# From MPEC 2022-ST7
C/2022 K1 (Leonard),h,12/16.5023/2021,41.9758,136.3651,142.5276,1.000696,3.985116,2000,11.0,4.0
# From MPEC 2023-CD7
C/2022 L1 (Catalina),e,123.4365,300.0312,59.7955,413.2330,0.0001173,0.99614973,0.0000,09/27.5999/2022,2000,g 15.8,4.0
# From MPC184409
C/2022 L2 (ATLAS),h,03/12.1558/2024,129.3111,39.2494,199.9290,1.000712,2.693620,2000,6.5,4.0
# From MPEC 2024-DC6
P/2022 L3 (ATLAS),e,21.5360,29.8267,10.4197,6.506778,0.0593820,0.62737572,61.8292,09/05.0/2025,2000,g 16.5,4.0
# From MPEC 2022-N37
C/2022 L4 (PANSTARRS),e,141.2428,66.0586,125.2347,280.6206,0.0002097,0.98928211,0.0000,12/09.0982/2021,2000,g 14.0,4.0
# From MPC186629
C/2022 N1 (Attard-Maury),e,164.7258,301.8788,40.9860,36.55621,0.0044593,0.95954200,4.8666,09/05.0/2025,2000,g 16.9,4.0
# From MPC186629
C/2022 N2 (PANSTARRS),h,07/31.8367/2025,5.5030,319.7394,75.4034,1.003385,3.825492,2000,6.0,4.0
# From MPEC 2024-A43
C/2022 O1 (ATLAS),h,02/15.2311/2022,71.0543,49.9096,268.9400,1.001048,7.435140,2000,6.0,4.0
# From MPEC 2023-HD1
P/2022 O2 (PANSTARRS),e,9.4175,330.4902,48.6724,6.305072,0.0622542,0.72088392,60.5334,09/05.0/2025,2000,g 16.0,4.0
# From MPEC 2023-N01
C/2022 P1 (NEOWISE),e,154.5834,205.0646,249.8606,18.46274,0.0124240,0.91378642,12.5639,09/05.0/2025,2000,g 13.0,4.0
# From MPEC 2023-XP6
P/2022 P2 (ZTF),e,12.4413,291.1699,137.7866,4.492131,0.1035203,0.55794363,119.2513,09/05.0/2025,2000,g 12.5,4.0
# From MPEC 2023-HD1
C/2022 P3 (ZTF),e,59.5154,72.2207,0.2327,265.2890,0.0002281,0.99032329,0.0000,07/27.5313/2022,2000,g 12.0,4.0
# From MPEC 2023-R20
C/2022 Q2 (ATLAS),e,151.4537,352.9626,44.0214,32.76300,0.0052557,0.94990812,4.9785,09/05.0/2025,2000,g 13.0,4.0
# From MPC184410
C/2022 QE78 (ATLAS),h,09/11.9528/2025,36.6349,119.8863,0.6214,1.001595,5.475794,2000,5.0,4.0
# From MPEC 2024-M41
P/2022 R1 (PANSTARRS),e,7.3808,175.6411,221.7449,7.137548,0.0516869,0.50063233,36.2911,09/05.0/2025,2000,g 11.5,4.0
# From MPEC 2022-Y15
C/2022 R2 (ATLAS),e,52.8881,60.3851,78.3199,442.8096,0.0001058,0.99857741,0.0000,10/25.6205/2022,2000,g 17.0,4.0
# From MPC184410
C/2022 R3 (Leonard),h,03/05.9636/2023,43.0691,8.2617,72.9410,1.001555,5.132660,2000,9.0,4.0
# From MPEC 2022-X67
P/2022 R4 (PANSTARRS),e,21.0073,176.6347,197.4970,3.838794,0.1310424,0.48936508,151.1232,09/05.0/2025,2000,g 16.5,4.0
# From MPEC 2022-WQ9
P/2022 R5 (PANSTARRS),e,15.2923,115.0411,240.5307,3.070116,0.1832196,0.19466402,219.4552,09/05.0/2025,2000,g 16.0,4.0
# From MPC185657
C/2022 R6 (PANSTARRS),h,08/26.3818/2025,57.0204,150.7842,319.9312,1.005109,6.565509,2000,5.0,4.0
# From MPEC 2023-HD1
P/2022 S1 (PANSTARRS),e,34.5652,136.0884,262.8526,6.408798,0.0607490,0.50753137,67.6182,09/05.0/2025,2000,g 13.0,4.0
# From MPEC 2022-VC5
C/2022 S3 (PANSTARRS),h,01/21.5962/2023,78.4728,157.2374,267.9924,1.000378,0.838944,2000,17.0,4.0
# From MPC185657
C/2022 S4 (Lemmon),e,101.2127,220.1791,268.5624,1434,0.0000182,0.99807354,0.0000,07/18.7932/2024,2000,g  8.0,4.0
# From MPEC 2023-HD1
